{
  "norad_id": 55931,
  "name": "STARLINK-5897",
  "history": [
    {
      "epoch": "2026-03-28T19:07:40.106208Z",
      "apogee_km": 574.0484912102957,
      "perigee_km": 570.019199164507,
      "latitude_deg": 5.8249036472831565e-06,
      "longitude_deg": 142.9697058908629,
      "height_km": 574.5052386112454,
      "semi_major_axis_km": 6950.170845187401,
      "eccentricity": 0.00028987,
      "inclination_deg": 69.9994,
      "raan_deg": 256.0991,
      "arg_perigee_deg": 268.7466,
      "mean_anomaly_deg": 91.3361,
      "mean_motion_rev_day": 14.98337129
    }
  ]
}