{"fetched_at":"2026-03-29T16:36:15Z","count":15609,"tles":[{"name":"STARLINK-5897","line1":"1 55931U 23037T   26087.79699197 -.00000048  00000+0  38072-5 0  9995","line2":"2 55931  69.9994 256.0991 0002898 268.7466  91.3361 14.98337129166350","category":"Starlink"}]}